NOAA 17                 
1 27453U 02032A   26066.64124891  .00000360  00000+0  16946-3 0  9990
2 27453  98.8538  31.2492 0010616 288.3006  71.7018 14.26188056232514
NOAA 18                 
1 28654U 05018A   26066.63087430  .00000086  00000+0  68344-4 0  9992
2 28654  98.8159 147.7670 0015312  80.9272 279.3633 14.13710358 71968
NOAA 19                 
1 33591U 09005A   26066.61169762  .00000075  00000+0  63599-4 0  9990
2 33591  98.9610 137.3793 0012969 320.9566  39.0669 14.13456312880130
SUOMI NPP               
1 37849U 11061A   26066.62869221  .00000126  00000+0  80764-4 0  9993
2 37849  98.7868   8.2478 0000403 247.9771 112.1362 14.19542835744038
NOAA 20 (JPSS-1)        
1 43013U 17073A   26066.57286887  .00000144  00000+0  89001-4 0  9990
2 43013  98.7690   6.9811 0001129 140.6553 219.4706 14.19535495430051
NOAA 21 (JPSS-2)        
1 54234U 22150A   26066.60759996  .00000121  00000+0  78181-4 0  9991
2 54234  98.7553   6.8973 0002622 109.8293 250.3166 14.19551531172136
